STARLINK-35343          
1 67334U 26003A   26037.42590247  .00101625  00000+0  17163-2 0  9999
2 67334  42.9991  44.4001 0001367 283.9640  76.1068 15.50568400  4030
STARLINK-36486          
1 67335U 26003B   26038.39177458  .00110796  00000+0  18646-2 0  9998
2 67335  42.9993  38.7456 0001079 281.1245  78.9494 15.50627883  4184
STARLINK-36480          
1 67336U 26003C   26037.36079775  .00103096  00000+0  17401-2 0  9991
2 67336  42.9995  44.7686 0001616 263.9469  96.1207 15.50578957  4026
STARLINK-36410          
1 67337U 26003D   26038.83336806 -.01999014  00000+0 -53513-1 0  9995
2 67337  43.0006  36.2468 0001042 261.7325  12.3555 15.40825897  5873
STARLINK-36413          
1 67338U 26003E   26038.83336806 -.02027367  00000+0 -50277-1 0  9994
2 67338  43.0005  36.2031 0001038 259.6729  32.0925 15.43138993  5875
STARLINK-36451          
1 67339U 26003F   26038.83336806 -.02043884  00000+0 -43914-1 0  9997
2 67339  43.0003  36.1542 0001420 255.1924  56.2695 15.47311866  5871
STARLINK-36339          
1 67340U 26003G   26038.84108800  .00122598  00000+0  20770-2 0  9993
2 67340  42.9969  36.0955 0005076 239.2143 120.8218 15.50378522  4252
STARLINK-36453          
1 67341U 26003H   26038.00322854  .00087646  00000+0  14799-2 0  9997
2 67341  43.0008  40.9896 0001601 261.0217  99.0462 15.50640230  4124
STARLINK-36432          
1 67342U 26003J   26038.06729907  .00160809  00000+0  26887-2 0  9998
2 67342  43.0006  40.6098 0001711 260.3641  99.7026 15.50602274  4139
STARLINK-36458          
1 67343U 26003K   26038.13137106  .00100184  00000+0  16913-2 0  9990
2 67343  42.9998  40.2299 0001084 254.8954 105.1786 15.50586298  4148
STARLINK-36422          
1 67344U 26003L   26037.35805299  .00088836  00000+0  15014-2 0  9999
2 67344  43.0008  44.7470 0001344 271.4656  88.6051 15.50607378  4026
STARLINK-35676          
1 67345U 26003M   26038.38834693  .00105374  00000+0  17759-2 0  9999
2 67345  42.9997  38.7180 0000952 263.9591  96.1160 15.50611172  4180
