CCSDS_OMM_VERS = 2.0
CREATION_DATE  = 
ORIGINATOR     = 

OBJECT_NAME    = STARLINK-35343
OBJECT_ID      = 2026-003A
CENTER_NAME    = EARTH
REF_FRAME      = TEME
TIME_SYSTEM    = UTC
MEAN_ELEMENT_THEORY = SGP/SGP4

EPOCH          = 2026-02-06T10:13:17.973408
MEAN_MOTION    = 15.50568400
ECCENTRICITY   = .00013675
INCLINATION    = 42.9991
RA_OF_ASC_NODE = 44.4001
ARG_OF_PERICENTER = 283.9640
MEAN_ANOMALY   = 76.1068

EPHEMERIS_TYPE = 0
CLASSIFICATION_TYPE = U
NORAD_CAT_ID   = 67334
ELEMENT_SET_NO = 999
REV_AT_EPOCH   = 403
BSTAR          = .17163292E-2
MEAN_MOTION_DOT = .101625E-2
MEAN_MOTION_DDOT = 0

CCSDS_OMM_VERS = 2.0
CREATION_DATE  = 
ORIGINATOR     = 

OBJECT_NAME    = STARLINK-36486
OBJECT_ID      = 2026-003B
CENTER_NAME    = EARTH
REF_FRAME      = TEME
TIME_SYSTEM    = UTC
MEAN_ELEMENT_THEORY = SGP/SGP4

EPOCH          = 2026-02-07T09:24:09.323712
MEAN_MOTION    = 15.50627883
ECCENTRICITY   = .00010793
INCLINATION    = 42.9993
RA_OF_ASC_NODE = 38.7456
ARG_OF_PERICENTER = 281.1245
MEAN_ANOMALY   = 78.9494

EPHEMERIS_TYPE = 0
CLASSIFICATION_TYPE = U
NORAD_CAT_ID   = 67335
ELEMENT_SET_NO = 999
REV_AT_EPOCH   = 418
BSTAR          = .1864562E-2
MEAN_MOTION_DOT = .110796E-2
MEAN_MOTION_DDOT = 0

CCSDS_OMM_VERS = 2.0
CREATION_DATE  = 
ORIGINATOR     = 

OBJECT_NAME    = STARLINK-36480
OBJECT_ID      = 2026-003C
CENTER_NAME    = EARTH
REF_FRAME      = TEME
TIME_SYSTEM    = UTC
MEAN_ELEMENT_THEORY = SGP/SGP4

EPOCH          = 2026-02-06T08:39:32.925600
MEAN_MOTION    = 15.50578957
ECCENTRICITY   = .00016169
INCLINATION    = 42.9995
RA_OF_ASC_NODE = 44.7686
ARG_OF_PERICENTER = 263.9469
MEAN_ANOMALY   = 96.1207

EPHEMERIS_TYPE = 0
CLASSIFICATION_TYPE = U
NORAD_CAT_ID   = 67336
ELEMENT_SET_NO = 999
REV_AT_EPOCH   = 402
BSTAR          = .1740099E-2
MEAN_MOTION_DOT = .103096E-2
MEAN_MOTION_DDOT = 0

CCSDS_OMM_VERS = 2.0
CREATION_DATE  = 
ORIGINATOR     = 

OBJECT_NAME    = STARLINK-36410
OBJECT_ID      = 2026-003D
CENTER_NAME    = EARTH
REF_FRAME      = TEME
TIME_SYSTEM    = UTC
MEAN_ELEMENT_THEORY = SGP/SGP4

EPOCH          = 2026-02-07T20:00:03.000384
MEAN_MOTION    = 15.40825897
ECCENTRICITY   = .0001042
INCLINATION    = 43.0006
RA_OF_ASC_NODE = 36.2468
ARG_OF_PERICENTER = 261.7325
MEAN_ANOMALY   = 12.3555

EPHEMERIS_TYPE = 0
CLASSIFICATION_TYPE = U
NORAD_CAT_ID   = 67337
ELEMENT_SET_NO = 999
REV_AT_EPOCH   = 587
BSTAR          = -.53513E-1
MEAN_MOTION_DOT = -.1999014E-1
MEAN_MOTION_DDOT = 0

CCSDS_OMM_VERS = 2.0
CREATION_DATE  = 
ORIGINATOR     = 

OBJECT_NAME    = STARLINK-36413
OBJECT_ID      = 2026-003E
CENTER_NAME    = EARTH
REF_FRAME      = TEME
TIME_SYSTEM    = UTC
MEAN_ELEMENT_THEORY = SGP/SGP4

EPOCH          = 2026-02-07T20:00:03.000384
MEAN_MOTION    = 15.43138993
ECCENTRICITY   = .0001038
INCLINATION    = 43.0005
RA_OF_ASC_NODE = 36.2031
ARG_OF_PERICENTER = 259.6729
MEAN_ANOMALY   = 32.0925

EPHEMERIS_TYPE = 0
CLASSIFICATION_TYPE = U
NORAD_CAT_ID   = 67338
ELEMENT_SET_NO = 999
REV_AT_EPOCH   = 587
BSTAR          = -.50277E-1
MEAN_MOTION_DOT = -.2027367E-1
MEAN_MOTION_DDOT = 0

CCSDS_OMM_VERS = 2.0
CREATION_DATE  = 
ORIGINATOR     = 

OBJECT_NAME    = STARLINK-36451
OBJECT_ID      = 2026-003F
CENTER_NAME    = EARTH
REF_FRAME      = TEME
TIME_SYSTEM    = UTC
MEAN_ELEMENT_THEORY = SGP/SGP4

EPOCH          = 2026-02-07T20:00:03.000384
MEAN_MOTION    = 15.47311866
ECCENTRICITY   = .000142
INCLINATION    = 43.0003
RA_OF_ASC_NODE = 36.1542
ARG_OF_PERICENTER = 255.1924
MEAN_ANOMALY   = 56.2695

EPHEMERIS_TYPE = 0
CLASSIFICATION_TYPE = U
NORAD_CAT_ID   = 67339
ELEMENT_SET_NO = 999
REV_AT_EPOCH   = 587
BSTAR          = -.43914E-1
MEAN_MOTION_DOT = -.2043884E-1
MEAN_MOTION_DDOT = 0

CCSDS_OMM_VERS = 2.0
CREATION_DATE  = 
ORIGINATOR     = 

OBJECT_NAME    = STARLINK-36339
OBJECT_ID      = 2026-003G
CENTER_NAME    = EARTH
REF_FRAME      = TEME
TIME_SYSTEM    = UTC
MEAN_ELEMENT_THEORY = SGP/SGP4

EPOCH          = 2026-02-07T20:11:10.003200
MEAN_MOTION    = 15.50378522
ECCENTRICITY   = .0005076
INCLINATION    = 42.9969
RA_OF_ASC_NODE = 36.0955
ARG_OF_PERICENTER = 239.2143
MEAN_ANOMALY   = 120.8218

EPHEMERIS_TYPE = 0
CLASSIFICATION_TYPE = U
NORAD_CAT_ID   = 67340
ELEMENT_SET_NO = 999
REV_AT_EPOCH   = 425
BSTAR          = .2077E-2
MEAN_MOTION_DOT = .122598E-2
MEAN_MOTION_DDOT = 0

CCSDS_OMM_VERS = 2.0
CREATION_DATE  = 
ORIGINATOR     = 

OBJECT_NAME    = STARLINK-36453
OBJECT_ID      = 2026-003H
CENTER_NAME    = EARTH
REF_FRAME      = TEME
TIME_SYSTEM    = UTC
MEAN_ELEMENT_THEORY = SGP/SGP4

EPOCH          = 2026-02-07T00:04:38.945856
MEAN_MOTION    = 15.50640230
ECCENTRICITY   = .00016015
INCLINATION    = 43.0008
RA_OF_ASC_NODE = 40.9896
ARG_OF_PERICENTER = 261.0217
MEAN_ANOMALY   = 99.0462

EPHEMERIS_TYPE = 0
CLASSIFICATION_TYPE = U
NORAD_CAT_ID   = 67341
ELEMENT_SET_NO = 999
REV_AT_EPOCH   = 412
BSTAR          = .14798969E-2
MEAN_MOTION_DOT = .87646E-3
MEAN_MOTION_DDOT = 0

CCSDS_OMM_VERS = 2.0
CREATION_DATE  = 
ORIGINATOR     = 

OBJECT_NAME    = STARLINK-36432
OBJECT_ID      = 2026-003J
CENTER_NAME    = EARTH
REF_FRAME      = TEME
TIME_SYSTEM    = UTC
MEAN_ELEMENT_THEORY = SGP/SGP4

EPOCH          = 2026-02-07T01:36:54.639648
MEAN_MOTION    = 15.50602274
ECCENTRICITY   = .00017112
INCLINATION    = 43.0006
RA_OF_ASC_NODE = 40.6098
ARG_OF_PERICENTER = 260.3641
MEAN_ANOMALY   = 99.7026

EPHEMERIS_TYPE = 0
CLASSIFICATION_TYPE = U
NORAD_CAT_ID   = 67342
ELEMENT_SET_NO = 999
REV_AT_EPOCH   = 413
BSTAR          = .26887266E-2
MEAN_MOTION_DOT = .160809E-2
MEAN_MOTION_DDOT = 0

CCSDS_OMM_VERS = 2.0
CREATION_DATE  = 
ORIGINATOR     = 

OBJECT_NAME    = STARLINK-36458
OBJECT_ID      = 2026-003K
CENTER_NAME    = EARTH
REF_FRAME      = TEME
TIME_SYSTEM    = UTC
MEAN_ELEMENT_THEORY = SGP/SGP4

EPOCH          = 2026-02-07T03:09:10.459584
MEAN_MOTION    = 15.50586298
ECCENTRICITY   = .00010844
INCLINATION    = 42.9998
RA_OF_ASC_NODE = 40.2299
ARG_OF_PERICENTER = 254.8954
MEAN_ANOMALY   = 105.1786

EPHEMERIS_TYPE = 0
CLASSIFICATION_TYPE = U
NORAD_CAT_ID   = 67343
ELEMENT_SET_NO = 999
REV_AT_EPOCH   = 414
BSTAR          = .16913223E-2
MEAN_MOTION_DOT = .100184E-2
MEAN_MOTION_DDOT = 0

CCSDS_OMM_VERS = 2.0
CREATION_DATE  = 
ORIGINATOR     = 

OBJECT_NAME    = STARLINK-36422
OBJECT_ID      = 2026-003L
CENTER_NAME    = EARTH
REF_FRAME      = TEME
TIME_SYSTEM    = UTC
MEAN_ELEMENT_THEORY = SGP/SGP4

EPOCH          = 2026-02-06T08:35:35.778336
MEAN_MOTION    = 15.50607378
ECCENTRICITY   = .00013441
INCLINATION    = 43.0008
RA_OF_ASC_NODE = 44.7470
ARG_OF_PERICENTER = 271.4656
MEAN_ANOMALY   = 88.6051

EPHEMERIS_TYPE = 0
CLASSIFICATION_TYPE = U
NORAD_CAT_ID   = 67344
ELEMENT_SET_NO = 999
REV_AT_EPOCH   = 402
BSTAR          = .15014371E-2
MEAN_MOTION_DOT = .88836E-3
MEAN_MOTION_DDOT = 0

CCSDS_OMM_VERS = 2.0
CREATION_DATE  = 
ORIGINATOR     = 

OBJECT_NAME    = STARLINK-35676
OBJECT_ID      = 2026-003M
CENTER_NAME    = EARTH
REF_FRAME      = TEME
TIME_SYSTEM    = UTC
MEAN_ELEMENT_THEORY = SGP/SGP4

EPOCH          = 2026-02-07T09:19:13.174752
MEAN_MOTION    = 15.50611172
ECCENTRICITY   = .00009526
INCLINATION    = 42.9997
RA_OF_ASC_NODE = 38.7180
ARG_OF_PERICENTER = 263.9591
MEAN_ANOMALY   = 96.1160

EPHEMERIS_TYPE = 0
CLASSIFICATION_TYPE = U
NORAD_CAT_ID   = 67345
ELEMENT_SET_NO = 999
REV_AT_EPOCH   = 418
BSTAR          = .1775875E-2
MEAN_MOTION_DOT = .105374E-2
MEAN_MOTION_DDOT = 0

